C/2017 K1 (PANSTARRS),h,03/16.9754/2018,154.0098,225.6513,4.3667,1.001430,7.288902,2000,7.0,4.0
# From MPC119995
C/2017 K2 (PANSTARRS),h,12/20.0261/2022,87.5425,88.2671,236.1530,1.000415,1.800016,2000,1.5,4.0
# From MPC106346
P/2017 K3 (Gasparovic),e,4.2748,354.2999,253.4291,5.580062,0.0747731,0.58088036,78.8346,04/20.0/2020,2000,g 14.5,4.0
# From MPC114598
C/2017 K4 (ATLAS),e,16.6802,298.8701,15.1979,28.42272,0.0065044,0.90678324,5.4160,04/20.0/2020,2000,g 10.0,4.0
# From MPC119995
C/2017 K5 (PANSTARRS),h,03/24.5137/2020,82.2618,102.3737,171.8586,1.006624,7.678687,2000,5.0,4.0
# From MPC114599
C/2017 K6 (Jacques),e,57.2543,85.0521,303.7728,1058,0.0000287,0.99810917,0.0000,01/03.2113/2018,2000,g 11.0,4.0
# From MPC110083
C/2017 M3 (PANSTARRS),e,77.5323,7.0055,110.3589,167.7447,0.0004537,0.97222945,0.0000,04/28.1960/2017,2000,g 10.5,4.0
# From MPC118093
C/2017 M4 (ATLAS),h,01/17.8746/2019,105.6442,65.8642,167.5645,1.001152,3.251660,2000,6.0,4.0
# From MPC118841
C/2017 M5 (TOTAS),h,06/03.7773/2018,15.8819,216.2745,92.7227,1.005049,5.991587,2000,6.5,4.0
# From MPC114599
C/2017 O1 (ASASSN),e,39.8761,25.7799,20.8586,358.9946,0.0001449,0.99583174,0.0000,10/14.7290/2017,2000,g 11.0,4.0
# From MPC114599
P/2017 P1 (PANSTARRS),e,7.6990,221.4013,122.1900,7.887914,0.0444898,0.31030427,29.9011,04/20.0/2020,2000,g 10.0,4.0
# From MPC114599
C/2017 P2 (PANSTARRS),e,50.0610,165.5098,132.3126,1894,0.0000120,0.99869927,0.0000,12/06.6821/2017,2000,g 10.0,4.0
# From MPC114599
P/2017 R1 (PANSTARRS),e,2.5736,143.6230,178.5168,4.134917,0.1172206,0.19554943,129.7227,04/20.0/2020,2000,g 13.5,4.0
# From MPC108595
C/2017 S2 (PANSTARRS),e,12.6804,62.4166,305.9362,20.50489,0.0106149,0.82385052,10.2387,04/20.0/2020,2000,g 13.0,4.0
# From MPC114599
C/2017 S3 (PANSTARRS),h,08/15.9615/2018,99.0953,171.1205,255.8408,1.000048,0.208411,2000,11.0,4.0
# From MPC114599
P/2017 S5 (ATLAS),e,11.8503,252.3861,99.8334,3.169093,0.1747035,0.31378755,174.1392,04/20.0/2020,2000,g 14.0,4.0
# From MPC109591
C/2017 S6 (Catalina),h,02/26.6781/2018,152.8677,131.0487,134.7931,1.000714,1.541910,2000,12.5,4.0
# From MPC114599
C/2017 S7 (Lemmon),h,05/26.0169/2017,124.2329,262.7921,187.6309,1.001268,7.609635,2000,7.0,4.0
# From MPC114599
P/2017 S8 (PANSTARRS),e,29.8237,191.7248,254.7133,2.778348,0.2128257,0.39264579,172.9938,04/20.0/2020,2000,g 16.0,4.0
# From MPC107050
P/2017 S9 (PANSTARRS),e,14.1434,146.2176,237.7345,3.154223,0.1759404,0.30488036,176.2549,04/20.0/2020,2000,g 17.0,4.0
# From MPC114600
C/2017 T1 (Heinze),h,02/21.4696/2018,96.8365,102.3161,96.9057,1.000014,0.581264,2000,14.5,4.0
# From MPC119996
C/2017 T2 (PANSTARRS),e,57.2306,64.3779,92.9949,4262,0.0000035,0.99962106,0.0000,05/04.9527/2020,2000,g  5.0,4.0
# From MPC114600
C/2017 T3 (ATLAS),e,88.0310,230.0677,246.8337,1419,0.0000184,0.99941892,0.0000,07/19.0560/2018,2000,g 10.0,4.0
# From MPC115882
P/2017 TW13 (Lemmon),e,44.8468,322.2857,120.0551,7.149892,0.0515531,0.70938237,34.4967,04/20.0/2020,2000,g 15.0,2.0
# From MPC114600
C/2017 U2 (Fuls),e,95.3947,149.7126,147.7647,4670,0.0000031,0.99856454,0.0000,08/28.2842/2017,2000,g  9.0,4.0
# From MPC114600
P/2017 U3 (PANSTARRS),e,15.9123,165.1101,297.1608,4.932285,0.0899771,0.09898026,33.0227,04/20.0/2020,2000,g 11.0,4.0
# From MPC114600
C/2017 U4 (PANSTARRS),h,09/24.2678/2018,158.2224,245.9501,159.0846,1.003470,7.722817,2000,7.0,4.0
# From MPC114600
C/2017 U5 (PANSTARRS),e,18.9666,163.0873,262.0724,16.87927,0.0142126,0.74384680,12.1309,04/20.0/2020,2000,g 12.0,4.0
# From MPC118841
C/2017 U7,h,09/12.7193/2019,142.6282,276.2362,326.1539,1.002932,6.418587,2000,8.3,2.0
# From MPC114600
C/2017 W2 (Leonard),e,98.1987,312.8347,169.1101,13.68576,0.0194671,0.71097931,17.5271,04/20.0/2020,2000,g 11.0,4.0
# From MPC114601
P/2017 W3 (Gibbs),e,18.1879,210.4364,327.5146,7.842254,0.0448790,0.50866311,35.0292,04/20.0/2020,2000,g 10.5,4.0
# From MPC115883
C/2017 X1 (PANSTARRS),e,31.3048,251.1295,283.2724,31.47900,0.0055805,0.85173539,3.7638,04/20.0/2020,2000,g 10.0,4.0
# From MPC117069
C/2017 Y1 (PANSTARRS),e,55.2640,307.5263,134.3673,2009,0.0000109,0.99815030,0.0000,08/31.1628/2017,2000,g 11.5,4.0
# From MPC118841
C/2017 Y2 (PANSTARRS),h,11/04.4669/2020,128.4291,65.9749,147.8374,1.000584,4.632321,2000,15.0,4.0
# From MPC111770
P/2017 Y3 (Leonard),e,27.5703,153.8606,67.5721,9.851925,0.0318730,0.87036521,25.4648,04/20.0/2020,2000,g 16.5,4.0
# From MPC114601
C/2018 A1 (PANSTARRS),e,53.5908,336.6353,96.3216,25.12800,0.0078247,0.90379145,7.1417,04/20.0/2020,2000,g 12.5,4.0
# From MPC119996
C/2018 A3 (ATLAS),e,139.5542,194.2919,86.4145,499.3450,0.0000883,0.99343901,0.0000,01/12.7764/2019,2000,g  8.5,4.0
# From MPC114601
C/2018 A4 (PANSTARRS),e,3.1481,97.6349,356.0885,12.22365,0.0230623,0.80350110,16.1994,04/20.0/2020,2000,g 14.0,4.0
# From MPC109147
P/2018 A5 (PANSTARRS),e,23.5778,87.8308,359.6263,5.638941,0.0736051,0.52224652,69.1665,04/20.0/2020,2000,g 15.0,4.0
# From MPC119996
C/2018 A6 (Gibbs),e,76.9570,340.3840,264.5453,15.34964,0.0163892,0.80338075,4.6001,04/20.0/2020,2000,g  9.0,4.0
# From MPC118841
C/2018 B1 (Lemmon),h,03/29.9018/2018,162.4207,133.1888,68.3173,1.001830,5.115368,2000,9.0,4.0
# From MPC114601
P/2018 C1 (Lemmon-Read),e,5.1358,270.3920,235.4408,5.646588,0.0734556,0.53525360,57.4709,04/20.0/2020,2000,g 13.5,4.0
# From MPC114601
C/2018 C2 (Lemmon),h,06/01.9992/2018,34.4582,91.1385,134.1116,1.001027,1.956815,2000,13.0,4.0
# From MPEC 2020-AA5
C/2018 DO4 (Lemmon),e,160.4741,251.1318,175.9628,25.79557,0.0075229,0.90673212,1.8478,04/20.0/2020,2000,g 11.0,4.0
# From MPC114602
C/2018 E1 (ATLAS),e,72.5038,146.8510,299.4409,54.06498,0.0024793,0.94997898,1.8192,04/20.0/2020,2000,g 10.5,4.0
# From MPC114602
C/2018 E2 (Barros),e,97.7319,67.2007,277.4815,3541,0.0000047,0.99889271,0.0000,12/23.9181/2017,2000,g 10.5,4.0
# From MPC114602
C/2018 EN4 (NEOWISE),e,81.5930,136.1529,35.0123,18.31256,0.0125771,0.92088049,8.5836,04/20.0/2020,2000,g 15.0,4.0
# From MPC114602
C/2018 EF9 (Lemmon),e,84.6643,172.5755,72.6206,595.4723,0.0000678,0.99738523,0.0000,05/23.0392/2018,2000,g 18.0,2.0
# From MPC115883
C/2018 F1 (Grauer),e,46.0755,177.2763,71.6385,300.9609,0.0001888,0.99005354,0.0000,12/14.0107/2018,2000,g 11.5,4.0
# From MPC110084
C/2018 F3 (Johnson),p,08/15.2314/2017,105.5348,293.0113,2.483172,173.0311,2000,13.0,4.0
# From MPC119996
C/2018 F4 (PANSTARRS),h,12/04.1232/2019,78.0982,26.5083,263.2184,1.001487,3.439890,2000,11.9,2.0
# From MPC114602
P/2018 H2 (PANSTARRS),e,7.3881,68.4340,120.0314,4.396714,0.1069084,0.53987013,87.4567,04/20.0/2020,2000,g 16.6,2.0
# From MPC114602
C/2018 K1 (Weiland),e,164.1961,260.0157,325.0062,29.85275,0.0060427,0.93702740,4.4972,04/20.0/2020,2000,g 14.9,4.0
# From MPC118094
C/2018 KJ3 (Lemmon),e,136.7093,91.5942,217.6336,742.5818,0.0000487,0.99511328,0.0000,09/09.5380/2019,2000,g 12.2,2.0
# From MPC114602
P/2018 L1 (PANSTARRS),e,10.5946,268.6270,17.9391,3.649251,0.1413834,0.48304066,74.1410,04/20.0/2020,2000,g 15.0,4.0
# From MPC118841
C/2018 L2 (ATLAS),e,67.4144,243.0221,56.2542,253.2056,0.0002446,0.99323809,0.0000,12/02.6373/2018,2000,g 10.0,4.0
# From MPC114603
P/2018 L4 (PANSTARRS),e,26.6234,145.1712,140.5061,4.937972,0.0898217,0.66032032,56.4164,04/20.0/2020,2000,g 17.5,4.0
# From MPC119996
P/2018 L5 (Leonard),e,2.2087,219.1502,93.7330,3.626964,0.1426886,0.36478318,102.1884,04/20.0/2020,2000,g 14.5,4.0
# From MPC117070
C/2018 M1 (Catalina),e,37.2738,339.4332,14.1450,21.30538,0.0100224,0.93885156,6.5134,04/20.0/2020,2000,g 15.5,4.0
# From MPC112393
C/2018 N1 (NEOWISE),e,159.4452,292.4424,354.5800,334.1663,0.0001613,0.99608488,0.0000,08/01.9141/2018,2000,g 15.5,4.0
# From MPC119996
C/2018 N2 (ASASSN),h,11/10.9635/2019,77.5294,25.2568,24.3973,1.000134,3.124646,2000,6.0,4.0
# From MPC114603
C/2018 O1 (ATLAS),e,154.0426,87.6254,162.5254,27.79792,0.0067249,0.94391413,4.0180,04/20.0/2020,2000,g 17.0,4.0
# From MPC114603
P/2018 P3 (PANSTARRS),e,8.9083,59.2011,305.8665,3.006857,0.1890318,0.41614794,105.5714,04/20.0/2020,2000,g 14.5,4.0
# From MPC114603
P/2018 P4 (PANSTARRS),e,23.1066,353.0924,8.1568,6.666618,0.0572593,0.45006411,30.3151,04/20.0/2020,2000,g 12.0,4.0
# From MPC118094
C/2018 P5 (PANSTARRS),e,7.2553,216.2456,131.6694,12.77412,0.0215878,0.64175536,9.0330,04/20.0/2020,2000,g 11.0,4.0
# From MPC118841
C/2018 R3 (Lemmon),e,69.7209,324.6282,112.8669,1847,0.0000124,0.99930124,0.0000,06/07.1931/2019,2000,g  9.5,4.0
# From MPC112393
C/2018 R4 (Fuls),e,11.6836,298.4370,345.2271,318.7119,0.0001732,0.99463066,0.0000,03/03.6888/2018,2000,g 14.0,4.0
# From MPC114603
C/2018 R5 (Lemmon),e,103.7498,171.1385,178.0296,22.80393,0.0090509,0.84117721,4.2175,04/20.0/2020,2000,g 11.5,4.0
# From MPC119996
C/2018 U1 (Lemmon),h,11/02.7667/2021,108.3017,75.4767,180.4086,1.000519,4.994477,2000,5.0,4.0
# From MPC114604
C/2018 V1 (Machholz-Fujikawa-Iwamoto),h,12/03.4967/2018,144.0539,128.8792,88.8382,1.000429,0.385762,2000,12.0,4.0
# From MPC115884
C/2018 V2 (ATLAS),e,159.1254,356.8461,318.7763,25.48722,0.0076599,0.90280560,3.9064,04/20.0/2020,2000,g 15.0,4.0
# From MPC114604
P/2018 VN2 (Leonard),e,18.2470,226.5391,138.7256,4.065106,0.1202531,0.47816304,82.3285,04/20.0/2020,2000,g 15.0,4.0
# From MPC117070
A/2018 V3,e,164.9777,308.6591,3.4938,120.6888,0.0007434,0.98890192,0.0000,09/08.6836/2019,2000,g 15.7,2.0
# From MPC114604
C/2018 V4 (Africano),e,69.0039,78.3791,359.9731,210.4595,0.0003228,0.98480222,0.0000,03/01.5421/2019,2000,g 12.5,4.0
# From MPC114604
P/2018 V5 (Trujillo-Sheppard),e,10.5822,171.2990,260.7417,8.955539,0.0367762,0.47447479,20.7745,04/20.0/2020,2000,g 12.5,4.0
# From MPC115884
C/2018 W1 (Catalina),e,83.2607,233.5915,251.2589,21.79418,0.0096871,0.93757627,3.3339,04/20.0/2020,2000,g 15.7,2.0
# From MPC119996
C/2018 W2 (Africano),h,09/05.7256/2019,116.6167,181.8528,157.9771,1.000665,1.454726,2000,9.5,4.0
# From MPC119996
C/2018 X2 (Fitzsimmons),e,23.0695,340.8290,162.0573,151.3447,0.0005294,0.98595192,0.0000,07/08.5356/2019,2000,g 12.0,4.0
# From MPC114604
